[
    [
        "GPS BIII-10 (PRN 13)",
        "1 68791U 26087A   26131.62585228  .00000021  00000+0  00000+0 0  9996",
        "2 68791  54.9867 209.2339 0004342 263.1461 174.6098  2.00585439   108"
    ]
]